[{"OBJECT_NAME":"TIANMU-1 09","OBJECT_ID":"2023-101C","EPOCH":"2026-03-09T22:17:34.703232","MEAN_MOTION":15.29080822,"ECCENTRICITY":0.00049013,"INCLINATION":97.267,"RA_OF_ASC_NODE":121.1263,"ARG_OF_PERICENTER":139.4293,"MEAN_ANOMALY":220.7314,"EPHEMERIS_TYPE":0,"CLASSIFICATION_TYPE":"U","NORAD_CAT_ID":57401,"ELEMENT_SET_NO":999,"REV_AT_EPOCH":14647,"BSTAR":0.00030540035,"MEAN_MOTION_DOT":8.553e-5,"MEAN_MOTION_DDOT":0},{"OBJECT_NAME":"STARLINK-36090","OBJECT_ID":"2025-281H","EPOCH":"2026-03-09T04:35:08.685600","MEAN_MOTION":15.27566656,"ECCENTRICITY":0.00013555,"INCLINATION":42.9996,"RA_OF_ASC_NODE":345.9085,"ARG_OF_PERICENTER":301.0577,"MEAN_ANOMALY":59.0141,"EPHEMERIS_TYPE":0,"CLASSIFICATION_TYPE":"U","NORAD_CAT_ID":66855,"ELEMENT_SET_NO":999,"REV_AT_EPOCH":1611,"BSTAR":0.00094453675,"MEAN_MOTION_DOT":0.0002581,"MEAN_MOTION_DDOT":0}]
